#aV2006 10 28  0  0   .00000000      96 DD+AD WGS84 FIT  NGA
## 1398 518400.00000000   900.00000000 54036  .0000000000000
+   30     1  2  3  4  5  6  7  8  9 10 11 13 14 15 16 17 18
+         19 20 21 22 23 24 25 26 27 28 29 30 31  0  0  0  0
+          0  0  0  0  0  0  0  0  0  0  0  0  0  0  0  0  0
+          0  0  0  0  0  0  0  0  0  0  0  0  0  0  0  0  0
+          0  0  0  0  0  0  0  0  0  0  0  0  0  0  0  0  0
++         0  0  0  0  0  0  0  0  0  0  0  0  0  0  0  0  0
++         0  0  0  0  0  0  0  0  0  0  0  0  0  0  0  0  0
++         0  0  0  0  0  0  0  0  0  0  0  0  0  0  0  0  0
++         0  0  0  0  0  0  0  0  0  0  0  0  0  0  0  0  0
++         0  0  0  0  0  0  0  0  0  0  0  0  0  0  0  0  0
%c cc cc ccc ccc cccc cccc cccc cccc ccccc ccccc ccccc ccccc
%c cc cc ccc ccc cccc cccc cccc cccc ccccc ccccc ccccc ccccc
%f  0.0000000  0.000000000  0.00000000000  0.000000000000000
%f  0.0000000  0.000000000  0.00000000000  0.000000000000000
%i    0    0    0    0      0      0      0      0         0
%i    0    0    0    0      0      0      0      0         0
/*      NGA, ST. LOUIS,MO.                                  
/*   EPHEMERIS COMPUTED FROM  3 DAYS OF DATA                
/* CCCCCCCCCCCCCCCCCCCCCCCCCCCCCCCCCCCCCCCCCCCCCCCCCCCCCCCCC
/* CCCCCCCCCCCCCCCCCCCCCCCCCCCCCCCCCCCCCCCCCCCCCCCCCCCCCCCCC
*  2006 10 28 21 15   .00000000                                                 
P  1  19881.790128  15219.638611   9166.171534     85.419124                    
V  1 -11015.766145  -2998.949333  29460.861485       .024336                    
P  2 -13141.550465 -18738.031333 -13913.651585     49.277434                    
V  2   -549.694748 -17341.869534  24057.370984       .036882                    
P  3  23368.125965  11450.742175  -6301.930067    346.759755                    
V  3  -8369.927492   1219.504726 -29390.324301       .366083                    
P  4  -5421.703240 -25688.325414  -2447.741777    329.816745                    
V  4   3040.298421  -3554.862709  31500.867474       .046534                    
P  5 -21892.996759  10951.068169   9884.818614    364.501167                    
V  5   7074.106393 -11360.694995  27778.160902      -.008963                    
P  6 -14194.429824  10496.084295 -19671.187635    568.301292                    
V  6 -23624.052234  -9630.410559  11737.915718      -.107955                    
P  7   9557.609477  16796.809762 -17805.468221    506.060319                    
V  7 -23013.368943  -5070.390500 -16884.484665      -.067232                    
P  8   1671.042643 -25442.963983  -6710.293787    -84.534845                    
V  8   3523.425022   8083.033651 -30805.774297      -.011840                    
P  9 -15118.837234   -107.081631  21283.424118     42.254572                    
V  9  -5263.192497 -27877.138520  -3541.110455       .015741                    
P 10 -15694.379613  -5821.515358 -20791.063307     91.880753                    
V 10  20244.892848 -16437.995782 -10423.576418       .005997                    
P 11  16043.220979  -4164.386282  20679.413979    357.337894                    
V 11   8190.102735  25453.834279   -946.187187       .017553                    
P 13  12412.246597  -9899.442074 -21375.475411    107.550979                    
V 13  24570.223523  10841.956404   9323.192433       .035357                    
P 14   5927.544622  16593.200630  19974.824178     -2.403027                    
V 14 -23588.466938  -8620.550620  14143.811627       .009067                    
P 15  -1482.935837  25812.267497  -5099.949385     24.386544                    
V 15  -3782.431959  -6103.194206 -31013.079568       .516508                    
P 16  12866.166209   8846.364225 -21419.779863     86.439508                    
V 16 -21195.349282  17314.076665  -5443.693666       .036081                    
P 17  -5591.311251 -16951.396544  19696.947282     91.451674                    
V 17  23718.480916   7959.499943  13472.263175      -.011997                    
P 18 -16017.054851  19271.448151   8423.394743   -251.738497                    
V 18 -10308.591838   3929.454509 -29348.620370      -.005780                    
P 19  25033.555621   7350.810312   5300.400385     28.737102                    
V 19   4856.473481   5229.848316 -30690.836170       .037090                    
P 20  22408.103983 -12682.632955   6363.557532    -21.931137                    
V 20  -4474.275864   7467.825195  30255.846928       .000721                    
P 21  -6323.974278  22309.500261 -12349.756798     59.110977                    
V 21  -5147.076213 -15565.086868 -25845.475908       .015839                    
P 22  -4603.401850  19148.083013  17973.849263    145.348686                    
V 22 -19200.788699  11904.740230 -17784.356741       .029877                    
P 23  21961.787958  -2551.063017 -14944.672194    139.438747                    
V 23  16875.832790   8303.638133  23326.914197       .005829                    
P 24  -7371.501942 -24396.619020  -6771.033797     47.841072                    
V 24   2056.405044  -9202.211271  30283.271029       .031141                    
P 25  10939.896213  22972.820213  -6938.263683    394.556047                    
V 25   -587.940117   9833.947457  30068.716757       .101020                    
P 26 -25320.278083  -8050.453168   3611.121646   -312.553687                    
V 26  -4086.972047  -3210.515725 -31615.610531      -.158718                    
P 27   6034.155553 -20607.673988 -14813.491225     75.189327                    
V 27   6707.522037  19032.346545 -23101.469226       .019258                    
P 28   7873.028059 -19988.157418  15683.167041     15.530075                    
V 28  16718.209993 -10295.848526 -22279.922147      -.008108                    
P 29 -25052.947868  -9323.348045    224.739272    132.835115                    
V 29    591.654617  -1579.342710 -32138.412105       .500613                    
P 30 -18829.622620  18543.627586  -2232.557868     14.672753                    
V 30  -4105.759074   -921.523676  31301.210151       .012528                    
P 31   8322.995198  24393.584043  -6136.888158    -60.485429                    
V 31  -1485.801853   8395.683212  30454.066197       .119243                    
EOF
